[{"OBJECT_NAME":"NUSAT-50 (NANCY ROMAN)","OBJECT_ID":"2024-149AB","EPOCH":"2026-03-09T19:15:16.765632","MEAN_MOTION":15.29713355,"ECCENTRICITY":0.00025229,"INCLINATION":97.3817,"RA_OF_ASC_NODE":150.7693,"ARG_OF_PERICENTER":238.0469,"MEAN_ANOMALY":122.0527,"EPHEMERIS_TYPE":0,"CLASSIFICATION_TYPE":"U","NORAD_CAT_ID":60493,"ELEMENT_SET_NO":999,"REV_AT_EPOCH":8693,"BSTAR":0.0004225155,"MEAN_MOTION_DOT":0.00012094,"MEAN_MOTION_DDOT":0},{"OBJECT_NAME":"STARLINK-34597","OBJECT_ID":"2025-144Q","EPOCH":"2026-03-09T14:36:00.735840","MEAN_MOTION":15.30174017,"ECCENTRICITY":0.0001046,"INCLINATION":53.1586,"RA_OF_ASC_NODE":181.1166,"ARG_OF_PERICENTER":100.129,"MEAN_ANOMALY":259.9829,"EPHEMERIS_TYPE":0,"CLASSIFICATION_TYPE":"U","NORAD_CAT_ID":64738,"ELEMENT_SET_NO":999,"REV_AT_EPOCH":3968,"BSTAR":0.00064685,"MEAN_MOTION_DOT":0.00018832,"MEAN_MOTION_DDOT":0}]
